ONEWEB-0045             
1 45151U 20008W   25161.52208123 -.00000236  00000+0 -70115-3 0  9993
2 45151  87.8839  95.1146 0001923  82.2899 277.8447 13.11417524261692
ONEWEB-0047             
1 45152U 20008X   25161.59352434 -.00000189  00000+0 -57682-3 0  9997
2 45152  87.8823 110.3667 0001951  80.5408 279.5940 13.10377097259538
ONEWEB-0048             
1 45153U 20008Y   25161.58853627 -.00000364  00000+0 -10780-2 0  9999
2 45153  87.8820 110.3910 0001919  78.5468 281.5875 13.10376500259149
ONEWEB-0049             
1 45154U 20008Z   25161.59103946 -.00000285  00000+0 -85302-3 0  9998
2 45154  87.8829 110.3842 0002153  67.0291 293.1063 13.10377194259363
ONEWEB-0051             
1 45155U 20008AA  25161.52037808 -.00000144  00000+0 -44289-3 0  9998
2 45155  87.8839  95.1585 0002096  80.9743 279.1622 13.11414804262372
ONEWEB-0052             
1 45156U 20008AB  25161.58604943 -.00000433  00000+0 -12774-2 0  9999
2 45156  87.8821 110.3282 0002060  64.0439 296.0901 13.10375332259278
ONEWEB-0053             
1 45157U 20008AC  25161.56861843 -.00000463  00000+0 -13640-2 0  9998
2 45157  87.8817 110.3930 0001698  85.4813 274.6509 13.10371069259249
ONEWEB-0054             
1 45158U 20008AD  25161.37442431  .00000435  00000+0  12089-2 0  9999
2 45158  87.8819 110.4064 0002131  79.6494 280.4874 13.10375970259339
