<?xml version="1.0" encoding="UTF-8"?>
<ndm xmlns:xsi="http://www.w3.org/2001/XMLSchema-instance" xsi:noNamespaceSchemaLocation="https://sanaregistry.org/r/ndmxml_unqualified/ndmxml-2.0.0-master-2.0.xsd">
<omm id="CCSDS_OMM_VERS" version="2.0">
<header><CREATION_DATE/><ORIGINATOR/></header><body><segment><metadata><OBJECT_NAME>ONEWEB-0045</OBJECT_NAME><OBJECT_ID>2020-008W</OBJECT_ID><CENTER_NAME>EARTH</CENTER_NAME><REF_FRAME>TEME</REF_FRAME><TIME_SYSTEM>UTC</TIME_SYSTEM><MEAN_ELEMENT_THEORY>SGP4</MEAN_ELEMENT_THEORY></metadata><data><meanElements><EPOCH>2025-06-10T12:31:47.818272</EPOCH><MEAN_MOTION>13.11417524</MEAN_MOTION><ECCENTRICITY>.0001923</ECCENTRICITY><INCLINATION>87.8839</INCLINATION><RA_OF_ASC_NODE>95.1146</RA_OF_ASC_NODE><ARG_OF_PERICENTER>82.2899</ARG_OF_PERICENTER><MEAN_ANOMALY>277.8447</MEAN_ANOMALY></meanElements><tleParameters><EPHEMERIS_TYPE>0</EPHEMERIS_TYPE><CLASSIFICATION_TYPE>U</CLASSIFICATION_TYPE><NORAD_CAT_ID>45151</NORAD_CAT_ID><ELEMENT_SET_NO>999</ELEMENT_SET_NO><REV_AT_EPOCH>26169</REV_AT_EPOCH><BSTAR>-.70115E-3</BSTAR><MEAN_MOTION_DOT>-.236E-5</MEAN_MOTION_DOT><MEAN_MOTION_DDOT>0</MEAN_MOTION_DDOT></tleParameters></data></segment></body></omm>
<omm id="CCSDS_OMM_VERS" version="2.0">
<header><CREATION_DATE/><ORIGINATOR/></header><body><segment><metadata><OBJECT_NAME>ONEWEB-0047</OBJECT_NAME><OBJECT_ID>2020-008X</OBJECT_ID><CENTER_NAME>EARTH</CENTER_NAME><REF_FRAME>TEME</REF_FRAME><TIME_SYSTEM>UTC</TIME_SYSTEM><MEAN_ELEMENT_THEORY>SGP4</MEAN_ELEMENT_THEORY></metadata><data><meanElements><EPOCH>2025-06-10T14:14:40.502976</EPOCH><MEAN_MOTION>13.10377097</MEAN_MOTION><ECCENTRICITY>.0001951</ECCENTRICITY><INCLINATION>87.8823</INCLINATION><RA_OF_ASC_NODE>110.3667</RA_OF_ASC_NODE><ARG_OF_PERICENTER>80.5408</ARG_OF_PERICENTER><MEAN_ANOMALY>279.5940</MEAN_ANOMALY></meanElements><tleParameters><EPHEMERIS_TYPE>0</EPHEMERIS_TYPE><CLASSIFICATION_TYPE>U</CLASSIFICATION_TYPE><NORAD_CAT_ID>45152</NORAD_CAT_ID><ELEMENT_SET_NO>999</ELEMENT_SET_NO><REV_AT_EPOCH>25953</REV_AT_EPOCH><BSTAR>-.57682E-3</BSTAR><MEAN_MOTION_DOT>-.189E-5</MEAN_MOTION_DOT><MEAN_MOTION_DDOT>0</MEAN_MOTION_DDOT></tleParameters></data></segment></body></omm>
<omm id="CCSDS_OMM_VERS" version="2.0">
<header><CREATION_DATE/><ORIGINATOR/></header><body><segment><metadata><OBJECT_NAME>ONEWEB-0048</OBJECT_NAME><OBJECT_ID>2020-008Y</OBJECT_ID><CENTER_NAME>EARTH</CENTER_NAME><REF_FRAME>TEME</REF_FRAME><TIME_SYSTEM>UTC</TIME_SYSTEM><MEAN_ELEMENT_THEORY>SGP4</MEAN_ELEMENT_THEORY></metadata><data><meanElements><EPOCH>2025-06-10T14:07:29.533728</EPOCH><MEAN_MOTION>13.10376500</MEAN_MOTION><ECCENTRICITY>.0001919</ECCENTRICITY><INCLINATION>87.8820</INCLINATION><RA_OF_ASC_NODE>110.3910</RA_OF_ASC_NODE><ARG_OF_PERICENTER>78.5468</ARG_OF_PERICENTER><MEAN_ANOMALY>281.5875</MEAN_ANOMALY></meanElements><tleParameters><EPHEMERIS_TYPE>0</EPHEMERIS_TYPE><CLASSIFICATION_TYPE>U</CLASSIFICATION_TYPE><NORAD_CAT_ID>45153</NORAD_CAT_ID><ELEMENT_SET_NO>999</ELEMENT_SET_NO><REV_AT_EPOCH>25914</REV_AT_EPOCH><BSTAR>-.1078E-2</BSTAR><MEAN_MOTION_DOT>-.364E-5</MEAN_MOTION_DOT><MEAN_MOTION_DDOT>0</MEAN_MOTION_DDOT></tleParameters></data></segment></body></omm>
<omm id="CCSDS_OMM_VERS" version="2.0">
<header><CREATION_DATE/><ORIGINATOR/></header><body><segment><metadata><OBJECT_NAME>ONEWEB-0049</OBJECT_NAME><OBJECT_ID>2020-008Z</OBJECT_ID><CENTER_NAME>EARTH</CENTER_NAME><REF_FRAME>TEME</REF_FRAME><TIME_SYSTEM>UTC</TIME_SYSTEM><MEAN_ELEMENT_THEORY>SGP4</MEAN_ELEMENT_THEORY></metadata><data><meanElements><EPOCH>2025-06-10T14:11:05.809344</EPOCH><MEAN_MOTION>13.10377194</MEAN_MOTION><ECCENTRICITY>.0002153</ECCENTRICITY><INCLINATION>87.8829</INCLINATION><RA_OF_ASC_NODE>110.3842</RA_OF_ASC_NODE><ARG_OF_PERICENTER>67.0291</ARG_OF_PERICENTER><MEAN_ANOMALY>293.1063</MEAN_ANOMALY></meanElements><tleParameters><EPHEMERIS_TYPE>0</EPHEMERIS_TYPE><CLASSIFICATION_TYPE>U</CLASSIFICATION_TYPE><NORAD_CAT_ID>45154</NORAD_CAT_ID><ELEMENT_SET_NO>999</ELEMENT_SET_NO><REV_AT_EPOCH>25936</REV_AT_EPOCH><BSTAR>-.85302E-3</BSTAR><MEAN_MOTION_DOT>-.285E-5</MEAN_MOTION_DOT><MEAN_MOTION_DDOT>0</MEAN_MOTION_DDOT></tleParameters></data></segment></body></omm>
<omm id="CCSDS_OMM_VERS" version="2.0">
<header><CREATION_DATE/><ORIGINATOR/></header><body><segment><metadata><OBJECT_NAME>ONEWEB-0051</OBJECT_NAME><OBJECT_ID>2020-008AA</OBJECT_ID><CENTER_NAME>EARTH</CENTER_NAME><REF_FRAME>TEME</REF_FRAME><TIME_SYSTEM>UTC</TIME_SYSTEM><MEAN_ELEMENT_THEORY>SGP4</MEAN_ELEMENT_THEORY></metadata><data><meanElements><EPOCH>2025-06-10T12:29:20.666112</EPOCH><MEAN_MOTION>13.11414804</MEAN_MOTION><ECCENTRICITY>.0002096</ECCENTRICITY><INCLINATION>87.8839</INCLINATION><RA_OF_ASC_NODE>95.1585</RA_OF_ASC_NODE><ARG_OF_PERICENTER>80.9743</ARG_OF_PERICENTER><MEAN_ANOMALY>279.1622</MEAN_ANOMALY></meanElements><tleParameters><EPHEMERIS_TYPE>0</EPHEMERIS_TYPE><CLASSIFICATION_TYPE>U</CLASSIFICATION_TYPE><NORAD_CAT_ID>45155</NORAD_CAT_ID><ELEMENT_SET_NO>999</ELEMENT_SET_NO><REV_AT_EPOCH>26237</REV_AT_EPOCH><BSTAR>-.44289E-3</BSTAR><MEAN_MOTION_DOT>-.144E-5</MEAN_MOTION_DOT><MEAN_MOTION_DDOT>0</MEAN_MOTION_DDOT></tleParameters></data></segment></body></omm>
<omm id="CCSDS_OMM_VERS" version="2.0">
<header><CREATION_DATE/><ORIGINATOR/></header><body><segment><metadata><OBJECT_NAME>ONEWEB-0052</OBJECT_NAME><OBJECT_ID>2020-008AB</OBJECT_ID><CENTER_NAME>EARTH</CENTER_NAME><REF_FRAME>TEME</REF_FRAME><TIME_SYSTEM>UTC</TIME_SYSTEM><MEAN_ELEMENT_THEORY>SGP4</MEAN_ELEMENT_THEORY></metadata><data><meanElements><EPOCH>2025-06-10T14:03:54.670752</EPOCH><MEAN_MOTION>13.10375332</MEAN_MOTION><ECCENTRICITY>.000206</ECCENTRICITY><INCLINATION>87.8821</INCLINATION><RA_OF_ASC_NODE>110.3282</RA_OF_ASC_NODE><ARG_OF_PERICENTER>64.0439</ARG_OF_PERICENTER><MEAN_ANOMALY>296.0901</MEAN_ANOMALY></meanElements><tleParameters><EPHEMERIS_TYPE>0</EPHEMERIS_TYPE><CLASSIFICATION_TYPE>U</CLASSIFICATION_TYPE><NORAD_CAT_ID>45156</NORAD_CAT_ID><ELEMENT_SET_NO>999</ELEMENT_SET_NO><REV_AT_EPOCH>25927</REV_AT_EPOCH><BSTAR>-.12774E-2</BSTAR><MEAN_MOTION_DOT>-.433E-5</MEAN_MOTION_DOT><MEAN_MOTION_DDOT>0</MEAN_MOTION_DDOT></tleParameters></data></segment></body></omm>
<omm id="CCSDS_OMM_VERS" version="2.0">
<header><CREATION_DATE/><ORIGINATOR/></header><body><segment><metadata><OBJECT_NAME>ONEWEB-0053</OBJECT_NAME><OBJECT_ID>2020-008AC</OBJECT_ID><CENTER_NAME>EARTH</CENTER_NAME><REF_FRAME>TEME</REF_FRAME><TIME_SYSTEM>UTC</TIME_SYSTEM><MEAN_ELEMENT_THEORY>SGP4</MEAN_ELEMENT_THEORY></metadata><data><meanElements><EPOCH>2025-06-10T13:38:48.632352</EPOCH><MEAN_MOTION>13.10371069</MEAN_MOTION><ECCENTRICITY>.0001698</ECCENTRICITY><INCLINATION>87.8817</INCLINATION><RA_OF_ASC_NODE>110.3930</RA_OF_ASC_NODE><ARG_OF_PERICENTER>85.4813</ARG_OF_PERICENTER><MEAN_ANOMALY>274.6509</MEAN_ANOMALY></meanElements><tleParameters><EPHEMERIS_TYPE>0</EPHEMERIS_TYPE><CLASSIFICATION_TYPE>U</CLASSIFICATION_TYPE><NORAD_CAT_ID>45157</NORAD_CAT_ID><ELEMENT_SET_NO>999</ELEMENT_SET_NO><REV_AT_EPOCH>25924</REV_AT_EPOCH><BSTAR>-.1364E-2</BSTAR><MEAN_MOTION_DOT>-.463E-5</MEAN_MOTION_DOT><MEAN_MOTION_DDOT>0</MEAN_MOTION_DDOT></tleParameters></data></segment></body></omm>
<omm id="CCSDS_OMM_VERS" version="2.0">
<header><CREATION_DATE/><ORIGINATOR/></header><body><segment><metadata><OBJECT_NAME>ONEWEB-0054</OBJECT_NAME><OBJECT_ID>2020-008AD</OBJECT_ID><CENTER_NAME>EARTH</CENTER_NAME><REF_FRAME>TEME</REF_FRAME><TIME_SYSTEM>UTC</TIME_SYSTEM><MEAN_ELEMENT_THEORY>SGP4</MEAN_ELEMENT_THEORY></metadata><data><meanElements><EPOCH>2025-06-10T08:59:10.260384</EPOCH><MEAN_MOTION>13.10375970</MEAN_MOTION><ECCENTRICITY>.0002131</ECCENTRICITY><INCLINATION>87.8819</INCLINATION><RA_OF_ASC_NODE>110.4064</RA_OF_ASC_NODE><ARG_OF_PERICENTER>79.6494</ARG_OF_PERICENTER><MEAN_ANOMALY>280.4874</MEAN_ANOMALY></meanElements><tleParameters><EPHEMERIS_TYPE>0</EPHEMERIS_TYPE><CLASSIFICATION_TYPE>U</CLASSIFICATION_TYPE><NORAD_CAT_ID>45158</NORAD_CAT_ID><ELEMENT_SET_NO>999</ELEMENT_SET_NO><REV_AT_EPOCH>25933</REV_AT_EPOCH><BSTAR>.12089E-2</BSTAR><MEAN_MOTION_DOT>.435E-5</MEAN_MOTION_DOT><MEAN_MOTION_DDOT>0</MEAN_MOTION_DDOT></tleParameters></data></segment></body></omm>

</ndm>
